$$SOE
2461281.500000000, A.D. 2026-Aug-29 00:00:00.0000, -5.076402012466542E+09, -3.909848240574003E+09, 2.588439230437248E+08,
2461288.500000000, A.D. 2026-Sep-05 00:00:00.0000, -5.074604717869831E+09, -3.911966028068440E+09, 2.587593845773747E+08,
2461295.500000000, A.D. 2026-Sep-12 00:00:00.0000, -5.072806459457755E+09, -3.914083143799527E+09, 2.586747982260957E+08,
2461302.500000000, A.D. 2026-Sep-19 00:00:00.0000, -5.071007239059166E+09, -3.916199588312024E+09, 2.585901641554687E+08,
2461309.500000000, A.D. 2026-Sep-26 00:00:00.0000, -5.069207058124687E+09, -3.918315362732964E+09, 2.585054824830046E+08,
2461316.500000000, A.D. 2026-Oct-03 00:00:00.0000, -5.067405917656470E+09, -3.920430468536288E+09, 2.584207532878282E+08,
2461323.500000000, A.D. 2026-Oct-10 00:00:00.0000, -5.065603818224532E+09, -3.922544907400173E+09, 2.583359766197972E+08,
2461330.500000000, A.D. 2026-Oct-17 00:00:00.0000, -5.063800760018050E+09, -3.924658681137894E+09, 2.582511525049593E+08,
2461337.500000000, A.D. 2026-Oct-24 00:00:00.0000, -5.061996742907198E+09, -3.926771791724775E+09, 2.581662809433615E+08,
2461344.500000000, A.D. 2026-Oct-31 00:00:00.0000, -5.060191766416776E+09, -3.928884241487882E+09, 2.580813618848224E+08,
2461351.500000000, A.D. 2026-Nov-07 00:00:00.0000, -5.058385829272562E+09, -3.930996033384322E+09, 2.579963951577890E+08,
2461358.500000000, A.D. 2026-Nov-14 00:00:00.0000, -5.056578928319516E+09, -3.933107170480775E+09, 2.579113804055762E+08,
2461365.500000000, A.D. 2026-Nov-21 00:00:00.0000, -5.054771058623573E+09, -3.935217653952354E+09, 2.578263172521205E+08,
2461372.500000000, A.D. 2026-Nov-28 00:00:00.0000, -5.052962215755130E+09, -3.937327482608870E+09, 2.577412055432146E+08,
2461379.500000000, A.D. 2026-Dec-05 00:00:00.0000, -5.051152396634679E+09, -3.939436654604810E+09, 2.576560452779064E+08,
2461386.500000000, A.D. 2026-Dec-12 00:00:00.0000, -5.049341598775694E+09, -3.941545168222083E+09, 2.575708364694579E+08,
2461393.500000000, A.D. 2026-Dec-19 00:00:00.0000, -5.047529819811978E+09, -3.943653021719062E+09, 2.574855791097426E+08,
2461400.500000000, A.D. 2026-Dec-26 00:00:00.0000, -5.045717057451964E+09, -3.945760213114040E+09, 2.574002731794317E+08,
2461407.500000000, A.D. 2027-Jan-02 00:00:00.0000, -5.043903309584337E+09, -3.947866740094100E+09, 2.573149186632292E+08,
2461414.500000000, A.D. 2027-Jan-09 00:00:00.0000, -5.042088574418687E+09, -3.949972600029430E+09, 2.572295155612147E+08,
2461421.500000000, A.D. 2027-Jan-16 00:00:00.0000, -5.040272850626896E+09, -3.952077790084455E+09, 2.571440638938389E+08,
2461428.500000000, A.D. 2027-Jan-23 00:00:00.0000, -5.038456137440656E+09, -3.954182307465648E+09, 2.570585636931403E+08,
2461435.500000000, A.D. 2027-Jan-30 00:00:00.0000, -5.036638434519017E+09, -3.956286149853964E+09, 2.569730149590268E+08,
2461442.500000000, A.D. 2027-Feb-06 00:00:00.0000, -5.034819741162876E+09, -3.958389315682043E+09, 2.568874175693617E+08,
2461449.500000000, A.D. 2027-Feb-13 00:00:00.0000, -5.033000055338250E+09, -3.960491803036615E+09, 2.568017712856214E+08,
2461456.500000000, A.D. 2027-Feb-20 00:00:00.0000, -5.031179374873577E+09, -3.962593607977234E+09, 2.567160760061109E+08,
2461463.500000000, A.D. 2027-Feb-27 00:00:00.0000, -5.029357699436031E+09, -3.964694725485020E+09, 2.566303318758764E+08,
2461470.500000000, A.D. 2027-Mar-06 00:00:00.0000, -5.027535030269391E+09, -3.966795151118875E+09, 2.565445391334219E+08,
2461477.500000000, A.D. 2027-Mar-13 00:00:00.0000, -5.025711369293977E+09, -3.968894881329727E+09, 2.564586980082920E+08,
2461484.500000000, A.D. 2027-Mar-20 00:00:00.0000, -5.023886718698233E+09, -3.970993913267418E+09, 2.563728087047215E+08,
2461491.500000000, A.D. 2027-Mar-27 00:00:00.0000, -5.022061080819985E+09, -3.973092244629193E+09, 2.562868714078145E+08,
2461498.500000000, A.D. 2027-Apr-03 00:00:00.0000, -5.020234458114494E+09, -3.975189873597539E+09, 2.562008862896409E+08,
2461505.500000000, A.D. 2027-Apr-10 00:00:00.0000, -5.018406853148011E+09, -3.977286798844282E+09, 2.561148535114372E+08,
2461512.500000000, A.D. 2027-Apr-17 00:00:00.0000, -5.016578268594831E+09, -3.979383019615276E+09, 2.560287732186782E+08,
2461519.500000000, A.D. 2027-Apr-24 00:00:00.0000, -5.014748707158585E+09, -3.981478535957843E+09, 2.559426455166426E+08,
2461526.500000000, A.D. 2027-May-01 00:00:00.0000, -5.012918171118131E+09, -3.983573349063137E+09, 2.558564704012628E+08,
2461533.500000000, A.D. 2027-May-08 00:00:00.0000, -5.011086661190689E+09, -3.985667460975059E+09, 2.557702476782353E+08,
2461540.500000000, A.D. 2027-May-15 00:00:00.0000, -5.009254176209058E+09, -3.987760872712269E+09, 2.556839770856168E+08,
2461547.500000000, A.D. 2027-May-22 00:00:00.0000, -5.007420715176793E+09, -3.989853583394914E+09, 2.555976585515811E+08,
2461554.500000000, A.D. 2027-May-29 00:00:00.0000, -5.005586278345408E+09, -3.991945591844323E+09, 2.555112921596096E+08,
2461561.500000000, A.D. 2027-Jun-05 00:00:00.0000, -5.003750866428781E+09, -3.994036897523906E+09, 2.554248779960024E+08,
2461568.500000000, A.D. 2027-Jun-12 00:00:00.0000, -5.001914479962264E+09, -3.996127500389488E+09, 2.553384160992184E+08,
2461575.500000000, A.D. 2027-Jun-19 00:00:00.0000, -5.000077119137558E+09, -3.998217400584066E+09, 2.552519064651458E+08,
2461582.500000000, A.D. 2027-Jun-26 00:00:00.0000, -4.998238783833876E+09, -4.000306598238317E+09, 2.551653490615022E+08,
2461589.500000000, A.D. 2027-Jul-03 00:00:00.0000, -4.996399473713341E+09, -4.002395093368552E+09, 2.550787438401282E+08,
2461596.500000000, A.D. 2027-Jul-10 00:00:00.0000, -4.994559188343713E+09, -4.004482885863395E+09, 2.549920907447577E+08,
2461603.500000000, A.D. 2027-Jul-17 00:00:00.0000, -4.992717927312132E+09, -4.006569975598060E+09, 2.549053897079978E+08,
2461610.500000000, A.D. 2027-Jul-24 00:00:00.0000, -4.990875690173438E+09, -4.008656362738997E+09, 2.548186406182883E+08,
2461617.500000000, A.D. 2027-Jul-31 00:00:00.0000, -4.989032475821630E+09, -4.010742048003444E+09, 2.547318432385821E+08,
2461624.500000000, A.D. 2027-Aug-07 00:00:00.0000, -4.987188281485214E+09, -4.012827031722101E+09, 2.546449971894498E+08,
2461631.500000000, A.D. 2027-Aug-14 00:00:00.0000, -4.985343103647527E+09, -4.014911311958291E+09, 2.545581021870849E+08,
2461638.500000000, A.D. 2027-Aug-21 00:00:00.0000, -4.983496940273836E+09, -4.016994885047747E+09, 2.544711582045960E+08,
2461645.500000000, A.D. 2027-Aug-28 00:00:00.0000, -4.981649790914146E+09, -4.019077747355831E+09, 2.543841653402135E+08,
2461652.500000000, A.D. 2027-Sep-04 00:00:00.0000, -4.979801655862867E+09, -4.021159895749877E+09, 2.542971237051117E+08,
2461659.500000000, A.D. 2027-Sep-11 00:00:00.0000, -4.977952535770648E+09, -4.023241327447948E+09, 2.542100334045763E+08,
2461666.500000000, A.D. 2027-Sep-18 00:00:00.0000, -4.976102431575193E+09, -4.025322039894099E+09, 2.541228945469251E+08,
2461673.500000000, A.D. 2027-Sep-25 00:00:00.0000, -4.974251344522217E+09, -4.027402030737535E+09, 2.540357072525780E+08,
2461680.500000000, A.D. 2027-Oct-02 00:00:00.0000, -4.972399276201439E+09, -4.029481297887758E+09, 2.539484716583881E+08,
2461687.500000000, A.D. 2027-Oct-09 00:00:00.0000, -4.970546228575134E+09, -4.031559839649836E+09, 2.538611879145451E+08,
2461694.500000000, A.D. 2027-Oct-16 00:00:00.0000, -4.968692203935955E+09, -4.033637654994225E+09, 2.537738561635492E+08,
2461701.500000000, A.D. 2027-Oct-23 00:00:00.0000, -4.966837204534017E+09, -4.035714743966456E+09, 2.536864764767663E+08,
2461708.500000000, A.D. 2027-Oct-30 00:00:00.0000, -4.964981231498405E+09, -4.037791107625998E+09, 2.535990487639320E+08,
2461715.500000000, A.D. 2027-Nov-06 00:00:00.0000, -4.963124284216429E+09, -4.039866746385897E+09, 2.535115728544097E+08,
2461722.500000000, A.D. 2027-Nov-13 00:00:00.0000, -4.961266362155969E+09, -4.041941658829143E+09, 2.534240487625477E+08,
2461729.500000000, A.D. 2027-Nov-20 00:00:00.0000, -4.959407466229012E+09, -4.044015843187483E+09, 2.533364766923432E+08,
2461736.500000000, A.D. 2027-Nov-27 00:00:00.0000, -4.957547598078772E+09, -4.046089298518122E+09, 2.532488568753479E+08,
2461743.500000000, A.D. 2027-Dec-04 00:00:00.0000, -4.955686759313929E+09, -4.048162024664248E+09, 2.531611895021195E+08,
2461750.500000000, A.D. 2027-Dec-11 00:00:00.0000, -4.953824951240562E+09, -4.050234021963328E+09, 2.530734747190125E+08,
2461757.500000000, A.D. 2027-Dec-18 00:00:00.0000, -4.951962174816792E+09, -4.052305291042135E+09, 2.529857126374245E+08,
2461764.500000000, A.D. 2027-Dec-25 00:00:00.0000, -4.950098430678153E+09, -4.054375832700593E+09, 2.528979033414960E+08,
2461771.500000000, A.D. 2028-Jan-01 00:00:00.0000, -4.948233719192260E+09, -4.056445647869731E+09, 2.528100468917413E+08,
$$EOE